MEAN_MOTION;ECCENTRICITY;INCLINATION;RA_OF_ASC_NODE;ARG_OF_PERICENTER;MEAN_ANOMALY;BSTAR;MEAN_MOTION_DOT;MEAN_MOTION_DDOT;TYPE
14.34218765;0.0002194;86.396;52.7069;85.432;274.7127;2.6333E-5;9.4E-7;0;Iridium
14.34218799;0.0002189;86.3961;52.5027;85.2862;274.8583;2.4391E-5;8.8E-7;0;Iridium
14.34218835;0.0002188;86.3962;52.2985;84.9963;275.1482;2.2223E-5;8.2E-7;0;Iridium
14.34218866;0.0002179;86.3963;52.0652;85.1007;275.0438;1.9801E-5;7.5E-7;0;Iridium
14.34218872;0.000218;86.3963;52.036;85.0761;275.0684;1.9717E-5;7.5E-7;0;Iridium
14.34218896;0.0002177;86.3964;51.861;84.9331;275.2113;1.7446E-5;6.9E-7;0;Iridium
14.34218981;0.0002174;86.3965;51.6568;84.9181;275.2262;1.804E-5;7.0E-7;0;Iridium
14.34219058;0.0002177;86.3965;51.4819;85.213;274.9315;1.8604E-5;7.2E-7;0;Iridium
14.3421916;0.0002174;86.3966;51.2484;85.4094;274.735;1.9346E-5;7.4E-7;0;Iridium
14.34219148;0.000218;86.3967;51.1901;85.3931;274.7514;1.7808E-5;7.0E-7;0;Iridium
14.34219148;0.000218;86.3967;51.1901;85.3931;274.7514;1.7808E-5;7.0E-7;0;Iridium
14.34219289;0.000217;86.3969;50.6359;85.2199;274.9245;1.5741E-5;6.4E-7;0;Iridium
14.34219289;0.000217;86.3969;50.6359;85.2199;274.9245;1.5741E-5;6.4E-7;0;Iridium
14.34219362;0.000216;86.397;50.4025;85.0697;275.0745;1.6151E-5;6.5E-7;0;Iridium
14.34219387;0.0002161;86.3971;50.1983;85.1744;274.9699;1.5003E-5;6.2E-7;0;Iridium
14.34219415;0.0002155;86.3972;49.9942;85.0877;275.0565;1.5206E-5;6.2E-7;0;Iridium
14.34219459;0.0002159;86.3973;49.7901;85.3147;274.8295;1.5409E-5;6.3E-7;0;Iridium
14.34219487;0.0002162;86.3975;49.3526;84.7847;275.3595;1.3894E-5;5.9E-7;0;Iridium
14.34219534;0.0002162;86.3976;49.0902;84.7471;275.3971;1.4841E-5;6.1E-7;0;Iridium
14.34219579;0.0002162;86.3976;49.0319;84.586;275.5582;1.7416E-5;6.9E-7;0;Iridium
14.34219707;0.0002156;86.3977;48.7111;84.4718;275.6724;2.1241E-5;7.9E-7;0;Iridium
14.34219713;0.000216;86.3978;48.5362;84.3657;275.7785;1.9042E-5;7.3E-7;0;Iridium
14.34219814;0.0002155;86.3979;48.2737;84.3925;275.7516;2.2808E-5;8.4E-7;0;Iridium
14.34219859;0.000215;86.398;48.0988;84.4609;275.6832;2.2694E-5;8.3E-7;0;Iridium
14.342199;0.0002145;86.3981;47.8655;84.4293;275.7147;2.1996E-5;8.1E-7;0;Iridium
14.34219896;0.0002146;86.3981;47.8364;84.446;275.698;2.1636E-5;8.0E-7;0;Iridium
14.342199;0.0002142;86.3981;47.6906;84.5008;275.6432;1.9044E-5;7.3E-7;0;Iridium
14.34215019;0.0002207;86.3982;47.4281;83.2314;276.9133;1.8756E-5;7.2E-7;0;Iridium
14.34215237;0.0002175;86.3983;47.2823;84.1557;275.9887;1.8527E-5;7.2E-7;0;Iridium
14.34215156;0.0002156;86.3984;47.02;84.0833;276.0608;1.0476E-5;4.9E-7;0;Iridium
14.34215141;0.0002152;86.3985;46.8451;84.1606;275.9835;3.3183E-6;2.9E-7;0;Iridium
14.34215157;0.0002149;86.3986;46.5828;84.2438;275.9003;1.4763E-6;2.4E-7;0;Iridium
14.34215321;0.0002141;86.3986;46.4371;84.2383;275.9056;1.6685E-5;6.7E-7;0;Iridium
14.3421535;0.0002132;86.3987;46.233;84.2225;275.9214;1.4995E-5;6.2E-7;0;Iridium
14.34215389;0.0002127;86.3988;46.029;84.2543;275.8896;1.3575E-5;5.8E-7;0;Iridium
14.34215485;0.0002125;86.3989;45.7666;84.4795;275.6643;1.4674E-5;6.1E-7;0;Iridium
14.34215452;0.0002126;86.399;45.5917;84.5897;275.5541;9.6576E-6;4.7E-7;0;Iridium
14.34215529;0.0002123;86.3991;45.3586;84.7288;275.415;1.1487E-5;5.2E-7;0;Iridium
14.34215561;0.0002122;86.3992;45.1837;84.7366;275.4072;1.1019E-5;5.1E-7;0;Iridium
14.34215594;0.0002124;86.3993;44.9214;84.8666;275.2772;1.0487E-5;4.9E-7;0;Iridium
14.34215635;0.000212;86.3993;44.7757;84.9065;275.2373;1.0695E-5;5.0E-7;0;Iridium
14.34215708;0.0002119;86.3994;44.5134;84.9291;275.2146;1.2704E-5;5.5E-7;0;Iridium
14.34215769;0.0002117;86.3995;44.3385;84.9616;275.1821;1.4773E-5;6.1E-7;0;Iridium
14.34215825;0.0002113;86.3996;44.1054;84.9956;275.1481;1.5741E-5;6.4E-7;0;Iridium
14.342158;0.0002115;86.3996;44.0762;84.9039;275.2398;1.3725E-5;5.8E-7;0;Iridium
14.34215837;0.0002112;86.3997;43.9305;84.9872;275.1565;1.3912E-5;5.9E-7;0;Iridium
14.3421597;0.0002115;86.3998;43.6683;85.0826;275.0611;2.0259E-5;7.7E-7;0;Iridium
14.34216009;0.0002113;86.3998;43.5226;85.1496;274.9941;1.9948E-5;7.6E-7;0;Iridium
14.34216008;0.0002114;86.3999;43.4643;85.2787;274.865;2.0183E-5;7.6E-7;0;Iridium
14.34216117;0.0002109;86.3999;43.1146;85.1401;275.0036;2.1251E-5;7.9E-7;0;Iridium
14.3421616;0.0002102;86.4;42.9106;85.2305;274.9131;2.1319E-5;7.9E-7;0;Iridium
14.3421616;0.0002102;86.4;42.9106;85.2305;274.9131;2.1319E-5;7.9E-7;0;Iridium
14.34216219;0.00021;86.4001;42.6775;85.3679;274.7757;2.1739E-5;8.1E-7;0;Iridium
14.34216247;0.0002097;86.4001;42.5026;85.2847;274.8589;2.0704E-5;7.8E-7;0;Iridium
14.34216334;0.0002097;86.4002;42.2695;85.4165;274.727;2.221E-5;8.2E-7;0;Iridium
14.34216402;0.0002094;86.4002;42.0947;85.3863;274.7572;2.4072E-5;8.7E-7;0;Iridium
14.34216488;0.0002092;86.4003;41.8616;85.3898;274.7537;2.4199E-5;8.8E-7;0;Iridium
14.34216573;0.0002084;86.4004;41.6576;85.4119;274.7315;2.5607E-5;9.1E-7;0;Iridium
14.34216573;0.0002084;86.4004;41.6576;85.4119;274.7315;2.5607E-5;9.1E-7;0;Iridium
14.34216635;0.0002084;86.4004;41.4246;85.5068;274.6366;2.4449E-5;8.8E-7;0;Iridium
14.34216741;0.0002076;86.4005;41.2498;85.5786;274.5647;2.6254E-5;9.3E-7;0;Iridium
14.34216814;0.0002081;86.4005;41.0167;85.9217;274.2217;2.5063E-5;9.0E-7;0;Iridium
14.3421692;0.0002079;86.4006;40.8128;85.9757;274.1676;2.6371E-5;9.4E-7;0;Iridium
14.3421692;0.0002079;86.4006;40.8128;85.9757;274.1676;2.6371E-5;9.4E-7;0;Iridium
14.3421694;0.0002082;86.4006;40.6089;85.9338;274.2096;2.269E-5;8.3E-7;0;Iridium
14.34217046;0.0002086;86.4007;40.2592;86.1278;274.0156;2.1719E-5;8.1E-7;0;Iridium
14.34217044;0.0002086;86.4008;40.201;85.9764;274.167;1.9753E-5;7.5E-7;0;Iridium
14.34217067;0.0002082;86.4008;39.997;85.5548;274.5885;1.6897E-5;6.7E-7;0;Iridium
14.3421711;0.0002079;86.4009;39.764;85.7184;274.4249;1.5319E-5;6.3E-7;0;Iridium
14.34217174;0.0002081;86.4009;39.5892;85.9539;274.1894;1.5563E-5;6.3E-7;0;Iridium
14.34217226;0.0002091;86.401;39.3561;86.4299;273.7135;1.4483E-5;6.0E-7;0;Iridium
14.34217355;0.0002091;86.4011;38.9483;86.3861;273.7574;1.5487E-5;6.3E-7;0;Iridium
14.34217467;0.0002089;86.4011;38.5696;86.5238;273.6196;1.777E-5;7.0E-7;0;Iridium
14.34217588;0.0002088;86.4012;38.3074;86.773;273.3705;2.0997E-5;7.9E-7;0;Iridium
14.34217588;0.0002088;86.4012;38.3074;86.773;273.3705;2.0997E-5;7.9E-7;0;Iridium
14.34217618;0.0002098;86.4012;38.1035;87.1113;273.0323;2.0754E-5;7.8E-7;0;Iridium
14.3421769;0.0002097;86.4012;37.8995;87.0628;273.0808;2.2765E-5;8.4E-7;0;Iridium
14.34217755;0.0002101;86.4013;37.6957;87.0471;273.0965;2.3648E-5;8.6E-7;0;Iridium
14.34217752;0.0002099;86.4013;37.5209;86.801;273.3426;2.1905E-5;8.1E-7;0;Iridium
14.34217786;0.0002106;86.4014;37.2879;86.8511;273.2925;2.0862E-5;7.8E-7;0;Iridium
14.34217832;0.0002105;86.4014;37.0839;86.8381;273.3056;2.1016E-5;7.9E-7;0;Iridium
14.34217832;0.0002105;86.4014;37.0839;86.8381;273.3056;2.1016E-5;7.9E-7;0;Iridium
14.34217889;0.0002105;86.4014;36.8509;86.8289;273.3148;2.1088E-5;7.9E-7;0;Iridium
14.34217995;0.0002104;86.4014;36.6761;86.9248;273.2188;2.3813E-5;8.6E-7;0;Iridium
14.34217995;0.0002104;86.4014;36.6761;86.9248;273.2188;2.3813E-5;8.6E-7;0;Iridium
14.34218073;0.0002108;86.4014;36.443;87.0244;273.1193;2.4371E-5;8.8E-7;0;Iridium
14.342182;0.0002106;86.4014;36.2682;87.0515;273.0921;2.7768E-5;9.8E-7;0;Iridium
14.34218253;0.000211;86.4014;36.0935;86.9829;273.1608;2.7502E-5;9.7E-7;0;Iridium
14.34218269;0.0002112;86.4014;36.0061;87.0479;273.0959;2.6595E-5;9.4E-7;0;Iridium
14.34218316;0.0002111;86.4014;35.8314;87.0205;273.1233;2.5152E-5;9.0E-7;0;Iridium
14.34218379;0.0002114;86.4014;35.6275;87.0414;273.1024;2.4254E-5;8.8E-7;0;Iridium
14.34218484;0.0002122;86.4014;35.2487;87.5893;272.5545;2.2705E-5;8.3E-7;0;Iridium
14.34218493;0.0002124;86.4014;35.2197;87.6793;272.4646;2.2369E-5;8.2E-7;0;Iridium
14.3421849;0.0002126;86.4014;35.0157;87.5588;272.5851;1.8731E-5;7.2E-7;0;Iridium
14.34218579;0.000213;86.4015;34.7827;87.6194;272.5245;1.8599E-5;7.2E-7;0;Iridium
14.34218624;0.0002135;86.4015;34.5788;87.6143;272.5297;1.7615E-5;6.9E-7;0;Iridium
14.34218624;0.0002135;86.4015;34.5788;87.6143;272.5297;1.7615E-5;6.9E-7;0;Iridium
14.34218678;0.0002139;86.4015;34.3458;87.6429;272.5012;1.6664E-5;6.6E-7;0;Iridium
14.34218769;0.0002138;86.4015;33.9671;87.6466;272.4974;1.5504E-5;6.3E-7;0;Iridium
14.34218781;0.0002138;86.4016;33.938;87.5653;272.5787;1.5944E-5;6.4E-7;0;Iridium
14.34218842;0.0002136;86.4016;33.7632;87.6315;272.5125;1.6646E-5;6.6E-7;0;Iridium
14.34218938;0.000214;86.4016;33.5302;87.6653;272.4788;1.848E-5;7.2E-7;0;Iridium
14.34219002;0.0002135;86.4016;33.3554;87.5349;272.6091;1.9717E-5;7.5E-7;0;Iridium
14.34219039;0.0002139;86.4016;33.1223;87.6683;272.4758;1.8721E-5;7.2E-7;0;Iridium
14.34219109;0.0002138;86.4016;32.9184;87.5902;272.5539;2.032E-5;7.7E-7;0;Iridium
14.34219109;0.0002138;86.4016;32.9184;87.5902;272.5539;2.032E-5;7.7E-7;0;Iridium
14.34219148;0.0002144;86.4016;32.7146;87.7959;272.3482;2.0133E-5;7.6E-7;0;Iridium
14.34219197;0.0002142;86.4016;32.5106;87.7279;272.4162;2.0434E-5;7.7E-7;0;Iridium
14.34219259;0.0002149;86.4015;32.2776;88.0298;272.1144;2.131E-5;7.9E-7;0;Iridium
14.34219324;0.0002148;86.4015;32.1028;88.0363;272.1079;2.2717E-5;8.3E-7;0;Iridium
14.34219324;0.0002148;86.4015;32.1028;88.0363;272.1079;2.2717E-5;8.3E-7;0;Iridium
14.34219399;0.0002155;86.4014;31.8697;88.1383;272.0059;2.3662E-5;8.6E-7;0;Iridium
14.34219477;0.000216;86.4014;31.6658;88.1251;272.0192;2.5299E-5;9.1E-7;0;Iridium
14.34219527;0.0002162;86.4014;31.5201;88.0531;272.0913;2.6054E-5;9.3E-7;0;Iridium
14.34219554;0.0002165;86.4014;31.4619;88.0636;272.0808;2.619E-5;9.3E-7;0;Iridium
14.34219595;0.0002166;86.4014;31.2579;87.8451;272.2993;2.5421E-5;9.1E-7;0;Iridium
14.34219692;0.0002168;86.4013;31.054;87.8748;272.2696;2.6545E-5;9.4E-7;0;Iridium
14.34221419;0.000231;86.401;30.8503;86.0668;274.0792;2.8377E-5;9.9E-7;0;Iridium
14.34221554;0.0002312;86.4009;30.6465;85.8309;274.3151;2.7511E-5;9.7E-7;0;Iridium
14.34220618;0.0002023;86.4009;30.4412;89.0687;271.0741;2.744E-5;9.7E-7;0;Iridium
14.34216272;0.0002214;86.4015;30.0051;87.2694;272.8755;2.5386E-5;9.1E-7;0;Iridium
